[{"OBJECT_NAME":"STARLINK-30586","OBJECT_ID":"2023-160K","EPOCH":"2026-03-07T03:14:59.371296","MEAN_MOTION":15.02531693,"ECCENTRICITY":0.0001146,"INCLINATION":43.0038,"RA_OF_ASC_NODE":94.1375,"ARG_OF_PERICENTER":276.6618,"MEAN_ANOMALY":83.4094,"EPHEMERIS_TYPE":0,"CLASSIFICATION_TYPE":"U","NORAD_CAT_ID":58084,"ELEMENT_SET_NO":999,"REV_AT_EPOCH":13253,"BSTAR":0.00011114,"MEAN_MOTION_DOT":1.298e-5,"MEAN_MOTION_DDOT":0},{"OBJECT_NAME":"STARLINK-30609","OBJECT_ID":"2023-160L","EPOCH":"2026-03-07T03:10:10.910208","MEAN_MOTION":15.02534707,"ECCENTRICITY":0.00016,"INCLINATION":43.0055,"RA_OF_ASC_NODE":94.1122,"ARG_OF_PERICENTER":269.8348,"MEAN_ANOMALY":90.2311,"EPHEMERIS_TYPE":0,"CLASSIFICATION_TYPE":"U","NORAD_CAT_ID":58085,"ELEMENT_SET_NO":999,"REV_AT_EPOCH":13253,"BSTAR":5.5989e-5,"MEAN_MOTION_DOT":5.53e-6,"MEAN_MOTION_DDOT":0},{"OBJECT_NAME":"STARLINK-30583","OBJECT_ID":"2023-160M","EPOCH":"2026-03-07T03:05:23.218080","MEAN_MOTION":15.02524945,"ECCENTRICITY":0.0001327,"INCLINATION":43.0023,"RA_OF_ASC_NODE":94.0859,"ARG_OF_PERICENTER":257.362,"MEAN_ANOMALY":102.7074,"EPHEMERIS_TYPE":0,"CLASSIFICATION_TYPE":"U","NORAD_CAT_ID":58086,"ELEMENT_SET_NO":999,"REV_AT_EPOCH":13253,"BSTAR":-0.00027958,"MEAN_MOTION_DOT":-3.977e-5,"MEAN_MOTION_DDOT":0},{"OBJECT_NAME":"STARLINK-30557","OBJECT_ID":"2023-160N","EPOCH":"2026-03-07T03:03:48.269664","MEAN_MOTION":15.02532309,"ECCENTRICITY":0.0001434,"INCLINATION":43.0036,"RA_OF_ASC_NODE":94.0793,"ARG_OF_PERICENTER":287.6618,"MEAN_ANOMALY":72.4068,"EPHEMERIS_TYPE":0,"CLASSIFICATION_TYPE":"U","NORAD_CAT_ID":58087,"ELEMENT_SET_NO":999,"REV_AT_EPOCH":13253,"BSTAR":0.00012927,"MEAN_MOTION_DOT":1.543e-5,"MEAN_MOTION_DDOT":0},{"OBJECT_NAME":"STARLINK-30591","OBJECT_ID":"2023-160P","EPOCH":"2026-03-07T02:27:18.288000","MEAN_MOTION":15.27127614,"ECCENTRICITY":0.0002309,"INCLINATION":43.0037,"RA_OF_ASC_NODE":92.1948,"ARG_OF_PERICENTER":345.9409,"MEAN_ANOMALY":14.1378,"EPHEMERIS_TYPE":0,"CLASSIFICATION_TYPE":"U","NORAD_CAT_ID":58088,"ELEMENT_SET_NO":999,"REV_AT_EPOCH":13255,"BSTAR":0.0034217,"MEAN_MOTION_DOT":0.00093799,"MEAN_MOTION_DDOT":0},{"OBJECT_NAME":"STARLINK-30584","OBJECT_ID":"2023-160Q","EPOCH":"2026-03-07T04:00:03.000096","MEAN_MOTION":15.27591137,"ECCENTRICITY":6.87e-5,"INCLINATION":43.0001,"RA_OF_ASC_NODE":92.0107,"ARG_OF_PERICENTER":250.2196,"MEAN_ANOMALY":26.6071,"EPHEMERIS_TYPE":0,"CLASSIFICATION_TYPE":"U","NORAD_CAT_ID":58089,"ELEMENT_SET_NO":999,"REV_AT_EPOCH":581,"BSTAR":0.00040329,"MEAN_MOTION_DOT":0.00010856,"MEAN_MOTION_DDOT":0},{"OBJECT_NAME":"STARLINK-30590","OBJECT_ID":"2023-160R","EPOCH":"2026-03-07T03:00:35.779104","MEAN_MOTION":15.02538053,"ECCENTRICITY":0.0001102,"INCLINATION":43.0029,"RA_OF_ASC_NODE":94.0597,"ARG_OF_PERICENTER":262.2714,"MEAN_ANOMALY":97.8003,"EPHEMERIS_TYPE":0,"CLASSIFICATION_TYPE":"U","NORAD_CAT_ID":58090,"ELEMENT_SET_NO":999,"REV_AT_EPOCH":13253,"BSTAR":7.4183e-5,"MEAN_MOTION_DOT":7.99e-6,"MEAN_MOTION_DDOT":0},{"OBJECT_NAME":"STARLINK-30608","OBJECT_ID":"2023-160S","EPOCH":"2026-03-07T02:34:37.668288","MEAN_MOTION":15.26757532,"ECCENTRICITY":0.0001319,"INCLINATION":43.0001,"RA_OF_ASC_NODE":92.2258,"ARG_OF_PERICENTER":258.2969,"MEAN_ANOMALY":101.7735,"EPHEMERIS_TYPE":0,"CLASSIFICATION_TYPE":"U","NORAD_CAT_ID":58091,"ELEMENT_SET_NO":999,"REV_AT_EPOCH":13255,"BSTAR":0.00035145,"MEAN_MOTION_DOT":9.184e-5,"MEAN_MOTION_DDOT":0},{"OBJECT_NAME":"STARLINK-30615","OBJECT_ID":"2023-160T","EPOCH":"2026-03-07T04:00:03.000096","MEAN_MOTION":15.26749877,"ECCENTRICITY":0.0001354,"INCLINATION":43.001,"RA_OF_ASC_NODE":92.319,"ARG_OF_PERICENTER":249.3294,"MEAN_ANOMALY":257.479,"EPHEMERIS_TYPE":0,"CLASSIFICATION_TYPE":"U","NORAD_CAT_ID":58092,"ELEMENT_SET_NO":999,"REV_AT_EPOCH":581,"BSTAR":-5.9328e-5,"MEAN_MOTION_DOT":-1.851e-5,"MEAN_MOTION_DDOT":0},{"OBJECT_NAME":"STARLINK-30578","OBJECT_ID":"2023-160U","EPOCH":"2026-03-07T02:45:49.012704","MEAN_MOTION":15.27561556,"ECCENTRICITY":7.78e-5,"INCLINATION":42.9991,"RA_OF_ASC_NODE":92.2746,"ARG_OF_PERICENTER":235.3456,"MEAN_ANOMALY":124.7322,"EPHEMERIS_TYPE":0,"CLASSIFICATION_TYPE":"U","NORAD_CAT_ID":58093,"ELEMENT_SET_NO":999,"REV_AT_EPOCH":13255,"BSTAR":-1.5092e-5,"MEAN_MOTION_DOT":-6.77e-6,"MEAN_MOTION_DDOT":0},{"OBJECT_NAME":"STARLINK-30574","OBJECT_ID":"2023-160V","EPOCH":"2026-03-07T04:00:03.000096","MEAN_MOTION":15.26748183,"ECCENTRICITY":0.0001099,"INCLINATION":42.9996,"RA_OF_ASC_NODE":91.9279,"ARG_OF_PERICENTER":254.2125,"MEAN_ANOMALY":56.5925,"EPHEMERIS_TYPE":0,"CLASSIFICATION_TYPE":"U","NORAD_CAT_ID":58094,"ELEMENT_SET_NO":999,"REV_AT_EPOCH":561,"BSTAR":-0.00034283,"MEAN_MOTION_DOT":-9.446e-5,"MEAN_MOTION_DDOT":0},{"OBJECT_NAME":"STARLINK-30570","OBJECT_ID":"2023-160W","EPOCH":"2026-03-07T04:00:03.000096","MEAN_MOTION":15.26736124,"ECCENTRICITY":0.0001042,"INCLINATION":42.9998,"RA_OF_ASC_NODE":91.9732,"ARG_OF_PERICENTER":272.6682,"MEAN_ANOMALY":19.6597,"EPHEMERIS_TYPE":0,"CLASSIFICATION_TYPE":"U","NORAD_CAT_ID":58095,"ELEMENT_SET_NO":999,"REV_AT_EPOCH":561,"BSTAR":0.00032143,"MEAN_MOTION_DOT":8.371e-5,"MEAN_MOTION_DDOT":0},{"OBJECT_NAME":"STARLINK-30581","OBJECT_ID":"2023-160X","EPOCH":"2026-03-07T01:37:33.542112","MEAN_MOTION":15.27571096,"ECCENTRICITY":0.0001206,"INCLINATION":43.0022,"RA_OF_ASC_NODE":92.7749,"ARG_OF_PERICENTER":241.6956,"MEAN_ANOMALY":118.3774,"EPHEMERIS_TYPE":0,"CLASSIFICATION_TYPE":"U","NORAD_CAT_ID":58096,"ELEMENT_SET_NO":999,"REV_AT_EPOCH":13254,"BSTAR":6.8483e-5,"MEAN_MOTION_DOT":1.622e-5,"MEAN_MOTION_DDOT":0},{"OBJECT_NAME":"STARLINK-30594","OBJECT_ID":"2023-161A","EPOCH":"2026-03-07T00:31:41.524032","MEAN_MOTION":15.30192574,"ECCENTRICITY":7.68e-5,"INCLINATION":53.1619,"RA_OF_ASC_NODE":177.8945,"ARG_OF_PERICENTER":92.2165,"MEAN_ANOMALY":267.8924,"EPHEMERIS_TYPE":0,"CLASSIFICATION_TYPE":"U","NORAD_CAT_ID":58097,"ELEMENT_SET_NO":999,"REV_AT_EPOCH":13401,"BSTAR":1.7767e-5,"MEAN_MOTION_DOT":1.67e-6,"MEAN_MOTION_DDOT":0},{"OBJECT_NAME":"STARLINK-30614","OBJECT_ID":"2023-161B","EPOCH":"2026-03-05T15:32:01.267296","MEAN_MOTION":15.30188091,"ECCENTRICITY":0.00015384,"INCLINATION":53.1609,"RA_OF_ASC_NODE":184.244,"ARG_OF_PERICENTER":85.644,"MEAN_ANOMALY":274.4737,"EPHEMERIS_TYPE":0,"CLASSIFICATION_TYPE":"U","NORAD_CAT_ID":58098,"ELEMENT_SET_NO":999,"REV_AT_EPOCH":13380,"BSTAR":3.2852891e-5,"MEAN_MOTION_DOT":6.13e-6,"MEAN_MOTION_DDOT":0},{"OBJECT_NAME":"STARLINK-30607","OBJECT_ID":"2023-161C","EPOCH":"2026-03-06T07:17:14.191872","MEAN_MOTION":15.30169506,"ECCENTRICITY":9.674e-5,"INCLINATION":53.1599,"RA_OF_ASC_NODE":171.2296,"ARG_OF_PERICENTER":97.3237,"MEAN_ANOMALY":262.7874,"EPHEMERIS_TYPE":0,"CLASSIFICATION_TYPE":"U","NORAD_CAT_ID":58099,"ELEMENT_SET_NO":999,"REV_AT_EPOCH":13403,"BSTAR":6.022147e-5,"MEAN_MOTION_DOT":1.423e-5,"MEAN_MOTION_DDOT":0},{"OBJECT_NAME":"STARLINK-30600","OBJECT_ID":"2023-161D","EPOCH":"2026-03-06T07:26:13.691616","MEAN_MOTION":15.30205526,"ECCENTRICITY":0.00013028,"INCLINATION":53.1632,"RA_OF_ASC_NODE":181.2597,"ARG_OF_PERICENTER":63.4104,"MEAN_ANOMALY":296.703,"EPHEMERIS_TYPE":0,"CLASSIFICATION_TYPE":"U","NORAD_CAT_ID":58100,"ELEMENT_SET_NO":999,"REV_AT_EPOCH":13390,"BSTAR":-0.0002973193,"MEAN_MOTION_DOT":-9.156e-5,"MEAN_MOTION_DDOT":0}]
