STARLINK-30586          
1 58084U 23160K   26066.13540939  .00001298  00000+0  11114-3 0  9991
2 58084  43.0038  94.1375 0001146 276.6618  83.4094 15.02531693132539
STARLINK-30609          
1 58085U 23160L   26066.13207072  .00000553  00000+0  55989-4 0  9992
2 58085  43.0055  94.1122 0001600 269.8348  90.2311 15.02534707132535
STARLINK-30583          
1 58086U 23160M   26066.12874095 -.00003977  00000+0 -27958-3 0  9996
2 58086  43.0023  94.0859 0001327 257.3620 102.7074 15.02524945132536
STARLINK-30557          
1 58087U 23160N   26066.12764201  .00001543  00000+0  12927-3 0  9999
2 58087  43.0036  94.0793 0001434 287.6618  72.4068 15.02532309132539
STARLINK-30591          
1 58088U 23160P   26066.10229500  .00093799  00000+0  34217-2 0  9995
2 58088  43.0037  92.1948 0002309 345.9409  14.1378 15.27127614132555
STARLINK-30584          
1 58089U 23160Q   26066.16670139  .00010856  00000+0  40329-3 0  9995
2 58089  43.0001  92.0107 0000687 250.2196  26.6071 15.27591137  5812
STARLINK-30590          
1 58090U 23160R   26066.12541411  .00000799  00000+0  74183-4 0  9994
2 58090  43.0029  94.0597 0001102 262.2714  97.8003 15.02538053132537
STARLINK-30608          
1 58091U 23160S   26066.10738042  .00009184  00000+0  35145-3 0  9992
2 58091  43.0001  92.2258 0001319 258.2969 101.7735 15.26757532132559
STARLINK-30615          
1 58092U 23160T   26066.16670139 -.00001851  00000+0 -59328-4 0  9996
2 58092  43.0010  92.3190 0001354 249.3294 257.4790 15.26749877  5818
STARLINK-30578          
1 58093U 23160U   26066.11515061 -.00000677  00000+0 -15092-4 0  9999
2 58093  42.9991  92.2746 0000778 235.3456 124.7322 15.27561556132551
STARLINK-30574          
1 58094U 23160V   26066.16670139 -.00009446  00000+0 -34283-3 0  9998
2 58094  42.9996  91.9279 0001099 254.2125  56.5925 15.26748183  5613
STARLINK-30570          
1 58095U 23160W   26066.16670139  .00008371  00000+0  32143-3 0  9996
2 58095  42.9998  91.9732 0001042 272.6682  19.6597 15.26736124  5617
STARLINK-30581          
1 58096U 23160X   26066.06774933  .00001622  00000+0  68483-4 0  9992
2 58096  43.0022  92.7749 0001206 241.6956 118.3774 15.27571096132540
STARLINK-30594          
1 58097U 23161A   26066.02200838  .00000167  00000+0  17767-4 0  9990
2 58097  53.1619 177.8945 0000768  92.2165 267.8924 15.30192574134017
STARLINK-30614          
1 58098U 23161B   26064.64723689  .00000613  00000+0  32853-4 0  9990
2 58098  53.1609 184.2440 0001538  85.6440 274.4737 15.30188091133808
STARLINK-30607          
1 58099U 23161C   26065.30363648  .00001423  00000+0  60221-4 0  9990
2 58099  53.1599 171.2296 0000967  97.3237 262.7874 15.30169506134039
STARLINK-30600          
1 58100U 23161D   26065.30988069 -.00009156  00000+0 -29732-3 0  9997
2 58100  53.1632 181.2597 0001302  63.4104 296.7030 15.30205526133905
